{
    "links": {
        "self": "http://www.neowsapp.com/rest/v1/neo/3477705?api_key=iIulBulltgU6a56xZRHN4H3l9WmuAYTsLGpBGhQ2"
    },
    "id": "3477705",
    "neo_reference_id": "3477705",
    "name": "(2009 WX6)",
    "designation": "2009 WX6",
    "nasa_jpl_url": "http://ssd.jpl.nasa.gov/sbdb.cgi?sstr=3477705",
    "absolute_magnitude_h": 23.9,
    "estimated_diameter": {
        "kilometers": {
            "estimated_diameter_min": 0.04411182,
            "estimated_diameter_max": 0.0986370281
        },
        "meters": {
            "estimated_diameter_min": 44.1118199997,
            "estimated_diameter_max": 98.6370281305
        },
        "miles": {
            "estimated_diameter_min": 0.0274098057,
            "estimated_diameter_max": 0.0612901888
        },
        "feet": {
            "estimated_diameter_min": 144.7238235278,
            "estimated_diameter_max": 323.6123073718
        }
    },
    "is_potentially_hazardous_asteroid": false,
    "close_approach_data": [
        {
            "close_approach_date": "1981-12-05",
            "close_approach_date_full": "1981-Dec-05 15:12",
            "epoch_date_close_approach": 376413120000,
            "relative_velocity": {
                "kilometers_per_second": "26.7995838112",
                "kilometers_per_hour": "96478.5017203434",
                "miles_per_hour": "59947.9890272878"
            },
            "miss_distance": {
                "astronomical": "0.4366392167",
                "lunar": "169.8526552963",
                "kilometers": "65320296.776788429",
                "miles": "40588150.3195571602"
            },
            "orbiting_body": "Earth"
        },
        {
            "close_approach_date": "1988-11-28",
            "close_approach_date_full": "1988-Nov-28 04:49",
            "epoch_date_close_approach": 596695740000,
            "relative_velocity": {
                "kilometers_per_second": "22.4348301419",
                "kilometers_per_hour": "80765.3885106737",
                "miles_per_hour": "50184.4715443128"
            },
            "miss_distance": {
                "astronomical": "0.2928472046",
                "lunar": "113.9175625894",
                "kilometers": "43809318.043614202",
                "miles": "27221847.9384399076"
            },
            "orbiting_body": "Earth"
        },
        {
            "close_approach_date": "2009-11-12",
            "close_approach_date_full": "2009-Nov-12 12:36",
            "epoch_date_close_approach": 1258029360000,
            "relative_velocity": {
                "kilometers_per_second": "14.3808654336",
                "kilometers_per_hour": "51771.1155611026",
                "miles_per_hour": "32168.5578885084"
            },
            "miss_distance": {
                "astronomical": "0.0278595059",
                "lunar": "10.8373477951",
                "kilometers": "4167722.741892433",
                "miles": "2589702.8256962554"
            },
            "orbiting_body": "Earth"
        }
    ],
    "orbital_data": {
        "orbit_id": "12",
        "orbit_determination_date": "2017-04-06 08:59:06",
        "first_observation_date": "2009-11-19",
        "last_observation_date": "2009-11-27",
        "data_arc_in_days": 8,
        "observations_used": 44,
        "orbit_uncertainty": "8",
        "minimum_orbit_intersection": ".0137925",
        "jupiter_tisserand_invariant": "3.931",
        "epoch_osculation": "2455157.5",
        "eccentricity": ".5426610419436577",
        "semi_major_axis": "1.761351155307845",
        "inclination": "1.402707753652043",
        "ascending_node_longitude": "13.45509265052057",
        "orbital_period": "853.8220174913047",
        "perihelion_distance": ".8055345021398246",
        "perihelion_argument": "332.7156715236771",
        "aphelion_distance": "2.717167808475866",
        "perihelion_time": "2455105.143945382384",
        "mean_anomaly": "22.07506866328112",
        "mean_motion": ".4216335402754664",
        "equinox": "J2000",
        "orbit_class": {
            "orbit_class_type": "APO",
            "orbit_class_description": "Near-Earth asteroid orbits which cross the Earth’s orbit similar to that of 1862 Apollo",
            "orbit_class_range": "a (semi-major axis) > 1.0 AU; q (perihelion) < 1.017 AU"
        }
    },
    "is_sentry_object": false
}